0 FENGYUN 1C DEB
1 29941U 99025JP  13281.55288318  .00003266  00000-0  97411-3 0  9379
2 29941 098.8751 025.7749 0095023 331.6076 093.5109 14.41171778352710
0 FENGYUN 1C DEB
1 29941U 99025JP  13282.24025253  .00004753  00000-0  14103-2 0  9382
2 29941 098.8749 026.4885 0095047 329.5409 059.7608 14.41185610352817
0 FENGYUN 1C DEB
1 29941U 99025JP  13283.28093872  .00005494  00000-0  16274-2 0  9394
2 29941 098.8749 027.5687 0094987 326.4518 059.1333 14.41192009352963
0 FENGYUN 1C DEB
1 29941U 99025JP  13285.86337544  .00004098  00000-0  12175-2 0  9415
2 29941 098.8750 030.2497 0095043 318.6443 137.7995 14.41210997353335
0 FENGYUN 1C DEB
1 29941U 99025JP  13287.11051688  .00004416  00000-0  13105-2 0  9426
2 29941 098.8754 031.5446 0095080 314.8837 128.5043 14.41219904353512
0 FENGYUN 1C DEB
1 29941U 99025JP  13288.28593441  .00007004  00000-0  20680-2 0  9436
2 29941 098.8760 032.7654 0095129 311.3411 107.1143 14.41233948353683
0 FENGYUN 1C DEB
1 29941U 99025JP  13289.53636870  .00006449  00000-0  19050-2 0  9441
2 29941 098.8764 034.0641 0095175 307.5883 114.9996 14.41247931353868
0 FENGYUN 1C DEB
1 29941U 99025JP  13291.26994067  .00006093  00000-0  17999-2 0  9455
2 29941 098.8764 035.8643 0095226 302.3637 109.7648 14.41264949354119
0 FENGYUN 1C DEB
1 29941U 99025JP  13292.81112183  .00005964  00000-0  17614-2 0  9469
2 29941 098.8764 037.4647 0095256 297.7582 186.3508 14.41282274354331
0 FENGYUN 1C DEB
1 29941U 99025JP  13293.85198028  .00006676  00000-0  19692-2 0  9476
2 29941 098.8762 038.5456 0095347 294.6209 187.0387 14.41292085354482
0 FENGYUN 1C DEB
1 29941U 99025JP  13295.10204981  .00007227  00000-0  21297-2 0  9480
2 29941 098.8759 039.8441 0095416 290.8773 193.2908 14.41304176354660
